STARLINK-4355           
1 53048U 22077F   26061.07520413 -.00002207  00000+0 -14886-3 0  9997
2 53048  97.6015 243.7450 0001338 102.1605 257.9772 15.05634624199830
STARLINK-4345           
1 53049U 22077G   26061.09629401 -.00002797  00000+0 -21318-3 0  9999
2 53049  97.6022 242.7945 0001365  25.6377 334.4915 15.01276765199779
STARLINK-4343           
1 53050U 22077H   26061.09734941 -.00001276  00000+0 -84255-4 0  9998
2 53050  97.6029 243.7115 0001503  91.0053 269.1346 15.05641838199830
STARLINK-4336           
1 53051U 22077J   26061.03704157  .00000079  00000+0  10672-4 0  9999
2 53051  97.6023 242.7151 0002954  71.4547 288.6999 15.01262806199767
STARLINK-4341           
1 53052U 22077K   26061.10000693 -.00000549  00000+0 -38181-4 0  9991
2 53052  97.6023 242.7941 0003124  39.5334 320.6117 15.01258984199776
STARLINK-4337           
1 53053U 22077L   26061.09258301  .00000785  00000+0  65675-4 0  9999
2 53053  97.6021 242.7852 0001487  75.3983 284.7407 15.01260113199773
STARLINK-4339           
1 53054U 22077M   26061.06135962  .00000102  00000+0  11308-4 0  9991
2 53054  97.6028 243.7504 0001297  83.5876 276.5499 15.05650878199839
STARLINK-4338           
1 53055U 22077N   26061.09181551 -.00001488  00000+0 -98924-4 0  9999
2 53055  97.6028 243.6928 0001334  90.3590 269.7790 15.05654647199836
STARLINK-4314           
1 53056U 22077P   26061.07797297 -.00007514  00000+0 -51692-3 0  9994
2 53056  97.6022 243.7203 0002027  88.5695 271.5764 15.05662207199836
STARLINK-4252           
1 53057U 22077Q   26061.10289932  .00000265  00000+0  22598-4 0  9999
2 53057  97.6032 243.8229 0001305  89.3214 270.8163 15.05646947199840
STARLINK-4317           
1 53058U 22077R   26061.03913968  .00000273  00000+0  25772-4 0  9991
2 53058  97.6026 242.6998 0002990  51.0203 309.1287 15.01260941199776
STARLINK-4320           
1 53059U 22077S   26061.01691970 -.00000474  00000+0 -32366-4 0  9998
2 53059  97.6010 242.7036 0000843 102.7943 257.3375 15.01257739199766
STARLINK-4305           
1 53060U 22077T   26061.08889568 -.00002154  00000+0 -16331-3 0  9999
2 53060  97.6018 242.7809 0001260  93.8247 266.3122 15.01247775199775
STARLINK-4308           
1 53061U 22077U   26061.08148652  .00001057  00000+0  86776-4 0  9992
2 53061  97.6018 242.7619 0000604 137.7311 222.3960 15.01260388199773
STARLINK-4311           
1 53062U 22077V   26061.01851938  .00000143  00000+0  15676-4 0  9990
2 53062  97.6021 242.7112 0000847 171.7815 188.3424 15.01262042199766
STARLINK-4307           
1 53063U 22077W   26061.05304757  .00001751  00000+0  12547-3 0  9996
2 53063  97.6035 243.6439 0001175  79.2872 280.8487 15.05658442 71419
STARLINK-4313           
1 53064U 22077X   26061.06413005  .00001281  00000+0  92920-4 0  9997
2 53064  97.6029 243.7128 0001187  74.4390 285.6968 15.05663302199839
