[{"OBJECT_NAME":"STARLINK-4355","OBJECT_ID":"2022-077F","EPOCH":"2026-03-02T01:48:17.636832","MEAN_MOTION":15.05634624,"ECCENTRICITY":0.0001338,"INCLINATION":97.6015,"RA_OF_ASC_NODE":243.745,"ARG_OF_PERICENTER":102.1605,"MEAN_ANOMALY":257.9772,"EPHEMERIS_TYPE":0,"CLASSIFICATION_TYPE":"U","NORAD_CAT_ID":53048,"ELEMENT_SET_NO":999,"REV_AT_EPOCH":19983,"BSTAR":-0.00014886,"MEAN_MOTION_DOT":-2.207e-5,"MEAN_MOTION_DDOT":0},{"OBJECT_NAME":"STARLINK-4345","OBJECT_ID":"2022-077G","EPOCH":"2026-03-02T02:18:39.802464","MEAN_MOTION":15.01276765,"ECCENTRICITY":0.0001365,"INCLINATION":97.6022,"RA_OF_ASC_NODE":242.7945,"ARG_OF_PERICENTER":25.6377,"MEAN_ANOMALY":334.4915,"EPHEMERIS_TYPE":0,"CLASSIFICATION_TYPE":"U","NORAD_CAT_ID":53049,"ELEMENT_SET_NO":999,"REV_AT_EPOCH":19977,"BSTAR":-0.00021318,"MEAN_MOTION_DOT":-2.797e-5,"MEAN_MOTION_DDOT":0},{"OBJECT_NAME":"STARLINK-4343","OBJECT_ID":"2022-077H","EPOCH":"2026-03-02T02:20:10.989024","MEAN_MOTION":15.05641838,"ECCENTRICITY":0.0001503,"INCLINATION":97.6029,"RA_OF_ASC_NODE":243.7115,"ARG_OF_PERICENTER":91.0053,"MEAN_ANOMALY":269.1346,"EPHEMERIS_TYPE":0,"CLASSIFICATION_TYPE":"U","NORAD_CAT_ID":53050,"ELEMENT_SET_NO":999,"REV_AT_EPOCH":19983,"BSTAR":-8.4255e-5,"MEAN_MOTION_DOT":-1.276e-5,"MEAN_MOTION_DDOT":0},{"OBJECT_NAME":"STARLINK-4336","OBJECT_ID":"2022-077J","EPOCH":"2026-03-02T00:53:20.391648","MEAN_MOTION":15.01262806,"ECCENTRICITY":0.0002954,"INCLINATION":97.6023,"RA_OF_ASC_NODE":242.7151,"ARG_OF_PERICENTER":71.4547,"MEAN_ANOMALY":288.6999,"EPHEMERIS_TYPE":0,"CLASSIFICATION_TYPE":"U","NORAD_CAT_ID":53051,"ELEMENT_SET_NO":999,"REV_AT_EPOCH":19976,"BSTAR":1.0672e-5,"MEAN_MOTION_DOT":7.9e-7,"MEAN_MOTION_DDOT":0},{"OBJECT_NAME":"STARLINK-4341","OBJECT_ID":"2022-077K","EPOCH":"2026-03-02T02:24:00.598752","MEAN_MOTION":15.01258984,"ECCENTRICITY":0.0003124,"INCLINATION":97.6023,"RA_OF_ASC_NODE":242.7941,"ARG_OF_PERICENTER":39.5334,"MEAN_ANOMALY":320.6117,"EPHEMERIS_TYPE":0,"CLASSIFICATION_TYPE":"U","NORAD_CAT_ID":53052,"ELEMENT_SET_NO":999,"REV_AT_EPOCH":19977,"BSTAR":-3.8181e-5,"MEAN_MOTION_DOT":-5.49e-6,"MEAN_MOTION_DDOT":0},{"OBJECT_NAME":"STARLINK-4337","OBJECT_ID":"2022-077L","EPOCH":"2026-03-02T02:13:19.172064","MEAN_MOTION":15.01260113,"ECCENTRICITY":0.0001487,"INCLINATION":97.6021,"RA_OF_ASC_NODE":242.7852,"ARG_OF_PERICENTER":75.3983,"MEAN_ANOMALY":284.7407,"EPHEMERIS_TYPE":0,"CLASSIFICATION_TYPE":"U","NORAD_CAT_ID":53053,"ELEMENT_SET_NO":999,"REV_AT_EPOCH":19977,"BSTAR":6.5675e-5,"MEAN_MOTION_DOT":7.85e-6,"MEAN_MOTION_DDOT":0},{"OBJECT_NAME":"STARLINK-4339","OBJECT_ID":"2022-077M","EPOCH":"2026-03-02T01:28:21.471168","MEAN_MOTION":15.05650878,"ECCENTRICITY":0.0001297,"INCLINATION":97.6028,"RA_OF_ASC_NODE":243.7504,"ARG_OF_PERICENTER":83.5876,"MEAN_ANOMALY":276.5499,"EPHEMERIS_TYPE":0,"CLASSIFICATION_TYPE":"U","NORAD_CAT_ID":53054,"ELEMENT_SET_NO":999,"REV_AT_EPOCH":19983,"BSTAR":1.1308e-5,"MEAN_MOTION_DOT":1.02e-6,"MEAN_MOTION_DDOT":0},{"OBJECT_NAME":"STARLINK-4338","OBJECT_ID":"2022-077N","EPOCH":"2026-03-02T02:12:12.860064","MEAN_MOTION":15.05654647,"ECCENTRICITY":0.0001334,"INCLINATION":97.6028,"RA_OF_ASC_NODE":243.6928,"ARG_OF_PERICENTER":90.359,"MEAN_ANOMALY":269.779,"EPHEMERIS_TYPE":0,"CLASSIFICATION_TYPE":"U","NORAD_CAT_ID":53055,"ELEMENT_SET_NO":999,"REV_AT_EPOCH":19983,"BSTAR":-9.8924e-5,"MEAN_MOTION_DOT":-1.488e-5,"MEAN_MOTION_DDOT":0},{"OBJECT_NAME":"STARLINK-4314","OBJECT_ID":"2022-077P","EPOCH":"2026-03-02T01:52:16.864608","MEAN_MOTION":15.05662207,"ECCENTRICITY":0.0002027,"INCLINATION":97.6022,"RA_OF_ASC_NODE":243.7203,"ARG_OF_PERICENTER":88.5695,"MEAN_ANOMALY":271.5764,"EPHEMERIS_TYPE":0,"CLASSIFICATION_TYPE":"U","NORAD_CAT_ID":53056,"ELEMENT_SET_NO":999,"REV_AT_EPOCH":19983,"BSTAR":-0.00051692,"MEAN_MOTION_DOT":-7.514e-5,"MEAN_MOTION_DDOT":0},{"OBJECT_NAME":"STARLINK-4252","OBJECT_ID":"2022-077Q","EPOCH":"2026-03-02T02:28:10.501248","MEAN_MOTION":15.05646947,"ECCENTRICITY":0.0001305,"INCLINATION":97.6032,"RA_OF_ASC_NODE":243.8229,"ARG_OF_PERICENTER":89.3214,"MEAN_ANOMALY":270.8163,"EPHEMERIS_TYPE":0,"CLASSIFICATION_TYPE":"U","NORAD_CAT_ID":53057,"ELEMENT_SET_NO":999,"REV_AT_EPOCH":19984,"BSTAR":2.2598e-5,"MEAN_MOTION_DOT":2.65e-6,"MEAN_MOTION_DDOT":0},{"OBJECT_NAME":"STARLINK-4317","OBJECT_ID":"2022-077R","EPOCH":"2026-03-02T00:56:21.668352","MEAN_MOTION":15.01260941,"ECCENTRICITY":0.000299,"INCLINATION":97.6026,"RA_OF_ASC_NODE":242.6998,"ARG_OF_PERICENTER":51.0203,"MEAN_ANOMALY":309.1287,"EPHEMERIS_TYPE":0,"CLASSIFICATION_TYPE":"U","NORAD_CAT_ID":53058,"ELEMENT_SET_NO":999,"REV_AT_EPOCH":19977,"BSTAR":2.5772e-5,"MEAN_MOTION_DOT":2.73e-6,"MEAN_MOTION_DDOT":0},{"OBJECT_NAME":"STARLINK-4320","OBJECT_ID":"2022-077S","EPOCH":"2026-03-02T00:24:21.862080","MEAN_MOTION":15.01257739,"ECCENTRICITY":8.43e-5,"INCLINATION":97.601,"RA_OF_ASC_NODE":242.7036,"ARG_OF_PERICENTER":102.7943,"MEAN_ANOMALY":257.3375,"EPHEMERIS_TYPE":0,"CLASSIFICATION_TYPE":"U","NORAD_CAT_ID":53059,"ELEMENT_SET_NO":999,"REV_AT_EPOCH":19976,"BSTAR":-3.2366e-5,"MEAN_MOTION_DOT":-4.74e-6,"MEAN_MOTION_DDOT":0},{"OBJECT_NAME":"STARLINK-4305","OBJECT_ID":"2022-077T","EPOCH":"2026-03-02T02:08:00.586752","MEAN_MOTION":15.01247775,"ECCENTRICITY":0.000126,"INCLINATION":97.6018,"RA_OF_ASC_NODE":242.7809,"ARG_OF_PERICENTER":93.8247,"MEAN_ANOMALY":266.3122,"EPHEMERIS_TYPE":0,"CLASSIFICATION_TYPE":"U","NORAD_CAT_ID":53060,"ELEMENT_SET_NO":999,"REV_AT_EPOCH":19977,"BSTAR":-0.00016331,"MEAN_MOTION_DOT":-2.154e-5,"MEAN_MOTION_DDOT":0},{"OBJECT_NAME":"STARLINK-4308","OBJECT_ID":"2022-077U","EPOCH":"2026-03-02T01:57:20.435328","MEAN_MOTION":15.01260388,"ECCENTRICITY":6.04e-5,"INCLINATION":97.6018,"RA_OF_ASC_NODE":242.7619,"ARG_OF_PERICENTER":137.7311,"MEAN_ANOMALY":222.396,"EPHEMERIS_TYPE":0,"CLASSIFICATION_TYPE":"U","NORAD_CAT_ID":53061,"ELEMENT_SET_NO":999,"REV_AT_EPOCH":19977,"BSTAR":8.6776e-5,"MEAN_MOTION_DOT":1.057e-5,"MEAN_MOTION_DDOT":0},{"OBJECT_NAME":"STARLINK-4311","OBJECT_ID":"2022-077V","EPOCH":"2026-03-02T00:26:40.074432","MEAN_MOTION":15.01262042,"ECCENTRICITY":8.47e-5,"INCLINATION":97.6021,"RA_OF_ASC_NODE":242.7112,"ARG_OF_PERICENTER":171.7815,"MEAN_ANOMALY":188.3424,"EPHEMERIS_TYPE":0,"CLASSIFICATION_TYPE":"U","NORAD_CAT_ID":53062,"ELEMENT_SET_NO":999,"REV_AT_EPOCH":19976,"BSTAR":1.5676e-5,"MEAN_MOTION_DOT":1.43e-6,"MEAN_MOTION_DDOT":0},{"OBJECT_NAME":"STARLINK-4307","OBJECT_ID":"2022-077W","EPOCH":"2026-03-02T01:16:23.310048","MEAN_MOTION":15.05658442,"ECCENTRICITY":0.0001175,"INCLINATION":97.6035,"RA_OF_ASC_NODE":243.6439,"ARG_OF_PERICENTER":79.2872,"MEAN_ANOMALY":280.8487,"EPHEMERIS_TYPE":0,"CLASSIFICATION_TYPE":"U","NORAD_CAT_ID":53063,"ELEMENT_SET_NO":999,"REV_AT_EPOCH":7141,"BSTAR":0.00012547,"MEAN_MOTION_DOT":1.751e-5,"MEAN_MOTION_DDOT":0},{"OBJECT_NAME":"STARLINK-4313","OBJECT_ID":"2022-077X","EPOCH":"2026-03-02T01:32:20.836320","MEAN_MOTION":15.05663302,"ECCENTRICITY":0.0001187,"INCLINATION":97.6029,"RA_OF_ASC_NODE":243.7128,"ARG_OF_PERICENTER":74.439,"MEAN_ANOMALY":285.6968,"EPHEMERIS_TYPE":0,"CLASSIFICATION_TYPE":"U","NORAD_CAT_ID":53064,"ELEMENT_SET_NO":999,"REV_AT_EPOCH":19983,"BSTAR":9.292e-5,"MEAN_MOTION_DOT":1.281e-5,"MEAN_MOTION_DDOT":0}]
